{"type": "FeatureCollection", "features": [ {"type": "Feature", "properties": {"norad_id": 35830, "name": "COSMOS 2251 DEB", "group": "cosmos-2251-debris", "lat": -40.39875103701887, "lon": 93.94273018406835, "alt_km": 730.6341697541338, "timestamp": "2025-12-16T10:53:45.867839+00:00", "meta": {"OBJECT_NAME": "COSMOS 2251 DEB", "OBJECT_ID": "1993-036ATC", "EPOCH": "2025-12-14T12:19:34.493088", "MEAN_MOTION": 14.23999153, "ECCENTRICITY": 0.01219147, "INCLINATION": 73.8627, "RA_OF_ASC_NODE": 263.2082, "ARG_OF_PERICENTER": 231.1991, "MEAN_ANOMALY": 127.8218, "EPHEMERIS_TYPE": 0, "CLASSIFICATION_TYPE": "U", "NORAD_CAT_ID": 35830, "ELEMENT_SET_NO": 999, "REV_AT_EPOCH": 61289, "BSTAR": 0.0011142473, "MEAN_MOTION_DOT": 2.736e-05, "MEAN_MOTION_DDOT": 0}, "tle": {"line1": "1 35830U 93036ATC 25348.51359367  .00002736  00000+0  11142-2 0  9999", "line2": "2 35830  73.8627 263.2082 0121914 231.1991 127.8218 14.23999153612892"}}, "geometry": {"type": "Point", "coordinates": [93.94273018406835, -40.39875103701887]}}, {"type": "Feature", "properties": {"norad_id": 35834, "name": "COSMOS 2251 DEB", "group": "cosmos-2251-debris", "lat": -73.50457834083278, "lon": -138.7936954921878, "alt_km": 934.9767332862748, "timestamp": "2025-12-16T10:53:45.867849+00:00", "meta": {"OBJECT_NAME": "COSMOS 2251 DEB", "OBJECT_ID": "1993-036ATG", "EPOCH": "2025-12-14T22:12:13.860288", "MEAN_MOTION": 14.12983028, "ECCENTRICITY": 0.01092939, "INCLINATION": 73.9319, "RA_OF_ASC_NODE": 300.6514, "ARG_OF_PERICENTER": 100.3352, "MEAN_ANOMALY": 319.5406, "EPHEMERIS_TYPE": 0, "CLASSIFICATION_TYPE": "U", "NORAD_CAT_ID": 35834, "ELEMENT_SET_NO": 999, "REV_AT_EPOCH": 66294, "BSTAR": 0.00039555683, "MEAN_MOTION_DOT": 7.56e-06, "MEAN_MOTION_DDOT": 0}, "tle": {"line1": "1 35834U 93036ATG 25348.92516042  .00000756  00000+0  39556-3 0  9993", "line2": "2 35834  73.9319 300.6514 0109293 100.3352 319.5406 14.12983028662947"}}, "geometry": {"type": "Point", "coordinates": [-138.7936954921878, -73.50457834083278]}}, {"type": "Feature", "properties": {"norad_id": 35835, "name": "COSMOS 2251 DEB", "group": "cosmos-2251-debris", "lat": 9.4472700303259, "lon": 79.46921467361004, "alt_km": 1079.4475754252635, "timestamp": "2025-12-16T10:53:45.867860+00:00", "meta": {"OBJECT_NAME": "COSMOS 2251 DEB", "OBJECT_ID": "1993-036ATH", "EPOCH": "2025-12-14T02:32:38.290272", "MEAN_MOTION": 13.82885991, "ECCENTRICITY": 0.02905018, "INCLINATION": 74.0643, "RA_OF_ASC_NODE": 266.1402, "ARG_OF_PERICENTER": 47.4139, "MEAN_ANOMALY": 315.1102, "EPHEMERIS_TYPE": 0, "CLASSIFICATION_TYPE": "U", "NORAD_CAT_ID": 35835, "ELEMENT_SET_NO": 999, "REV_AT_EPOCH": 61718, "BSTAR": 0.0018908593, "MEAN_MOTION_DOT": 2.83e-05, "MEAN_MOTION_DDOT": 0}, "tle": {"line1": "1 35835U 93036ATH 25348.10599873  .00002830  00000+0  18909-2 0  9990", "line2": "2 35835  74.0643 266.1402 0290501  47.4139 315.1102 13.82885991617186"}}, "geometry": {"type": "Point", "coordinates": [79.46921467361004, 9.4472700303259]}}, {"type": "Feature", "properties": {"norad_id": 35836, "name": "COSMOS 2251 DEB", "group": "cosmos-2251-debris", "lat": 54.21026725663526, "lon": -37.68078258373082, "alt_km": 655.5081933542524, "timestamp": "2025-12-16T10:53:45.867870+00:00", "meta": {"OBJECT_NAME": "COSMOS 2251 DEB", "OBJECT_ID": "1993-036ATJ", "EPOCH": "2025-12-15T04:57:37.173600", "MEAN_MOTION": 14.7102941, "ECCENTRICITY": 0.00240331, "INCLINATION": 74.0312, "RA_OF_ASC_NODE": 168.1432, "ARG_OF_PERICENTER": 226.3716, "MEAN_ANOMALY": 133.5463, "EPHEMERIS_TYPE": 0, "CLASSIFICATION_TYPE": "U", "NORAD_CAT_ID": 35836, "ELEMENT_SET_NO": 999, "REV_AT_EPOCH": 63556, "BSTAR": 0.0012109146, "MEAN_MOTION_DOT": 7.444e-05, "MEAN_MOTION_DDOT": 0}, "tle": {"line1": "1 35836U 93036ATJ 25349.20668025  .00007444  00000+0  12109-2 0  9991", "line2": "2 35836  74.0312 168.1432 0024033 226.3716 133.5463 14.71029410635567"}}, "geometry": {"type": "Point", "coordinates": [-37.68078258373082, 54.21026725663526]}}, {"type": "Feature", "properties": {"norad_id": 35837, "name": "COSMOS 2251 DEB", "group": "cosmos-2251-debris", "lat": 43.94898634126419, "lon": -142.19347489997386, "alt_km": 927.337883656709, "timestamp": "2025-12-16T10:53:45.867882+00:00", "meta": {"OBJECT_NAME": "COSMOS 2251 DEB", "OBJECT_ID": "1993-036ATK", "EPOCH": "2025-12-15T09:05:06.776160", "MEAN_MOTION": 13.63487481, "ECCENTRICITY": 0.04220862, "INCLINATION": 73.7223, "RA_OF_ASC_NODE": 203.2367, "ARG_OF_PERICENTER": 123.6025, "MEAN_ANOMALY": 50.428, "EPHEMERIS_TYPE": 0, "CLASSIFICATION_TYPE": "U", "NORAD_CAT_ID": 35837, "ELEMENT_SET_NO": 999, "REV_AT_EPOCH": 58012, "BSTAR": 0.0018212331, "MEAN_MOTION_DOT": 2.609e-05, "MEAN_MOTION_DDOT": 0}, "tle": {"line1": "1 35837U 93036ATK 25349.37855065  .00002609  00000+0  18212-2 0  9991", "line2": "2 35837  73.7223 203.2367 0422086 123.6025  50.4280 13.63487481580126"}}, "geometry": {"type": "Point", "coordinates": [-142.19347489997386, 43.94898634126419]}}, {"type": "Feature", "properties": {"norad_id": 35839, "name": "COSMOS 2251 DEB", "group": "cosmos-2251-debris", "lat": 74.11538206858407, "lon": 51.27890632506648, "alt_km": 393.2807562383168, "timestamp": "2025-12-16T10:53:45.867892+00:00", "meta": {"OBJECT_NAME": "COSMOS 2251 DEB", "OBJECT_ID": "1993-036ATM", "EPOCH": "2025-12-15T14:25:31.039680", "MEAN_MOTION": 15.5439678, "ECCENTRICITY": 0.00035051, "INCLINATION": 74.2054, "RA_OF_ASC_NODE": 317.2687, "ARG_OF_PERICENTER": 130.154, "MEAN_ANOMALY": 229.9984, "EPHEMERIS_TYPE": 0, "CLASSIFICATION_TYPE": "U", "NORAD_CAT_ID": 35839, "ELEMENT_SET_NO": 999, "REV_AT_EPOCH": 88612, "BSTAR": 0.0039077103, "MEAN_MOTION_DOT": 0.00265243, "MEAN_MOTION_DDOT": 0}, "tle": {"line1": "1 35839U 93036ATM 25349.60105370  .00265243  00000+0  39077-2 0  9993", "line2": "2 35839  74.2054 317.2687 0003505 130.1540 229.9984 15.54396780886129"}}, "geometry": {"type": "Point", "coordinates": [51.27890632506648, 74.11538206858407]}}, {"type": "Feature", "properties": {"norad_id": 35840, "name": "COSMOS 2251 DEB", "group": "cosmos-2251-debris", "lat": 47.881029250729455, "lon": -47.29301736349251, "alt_km": 740.4679545661502, "timestamp": "2025-12-16T10:53:45.867902+00:00", "meta": {"OBJECT_NAME": "COSMOS 2251 DEB", "OBJECT_ID": "1993-036ATN", "EPOCH": "2025-12-12T04:26:56.474304", "MEAN_MOTION": 14.37821687, "ECCENTRICITY": 0.01162768, "INCLINATION": 73.9307, "RA_OF_ASC_NODE": 159.2062, "ARG_OF_PERICENTER": 61.7798, "MEAN_ANOMALY": 299.5037, "EPHEMERIS_TYPE": 0, "CLASSIFICATION_TYPE": "U", "NORAD_CAT_ID": 35840, "ELEMENT_SET_NO": 999, "REV_AT_EPOCH": 85283, "BSTAR": 0.0026691111, "MEAN_MOTION_DOT": 8.683e-05, "MEAN_MOTION_DDOT": 0}, "tle": {"line1": "1 35840U 93036ATN 25346.18537586  .00008683  00000+0  26691-2 0  9994", "line2": "2 35840  73.9307 159.2062 0116276  61.7798 299.5037 14.37821687852835"}}, "geometry": {"type": "Point", "coordinates": [-47.29301736349251, 47.881029250729455]}}, {"type": "Feature", "properties": {"norad_id": 35883, "name": "COSMOS 2251 DEB", "group": "cosmos-2251-debris", "lat": -57.10358101653463, "lon": 36.75305265139888, "alt_km": 747.9127254632813, "timestamp": "2025-12-16T10:53:45.867912+00:00", "meta": {"OBJECT_NAME": "COSMOS 2251 DEB", "OBJECT_ID": "1993-036ATW", "EPOCH": "2025-12-15T13:58:55.079616", "MEAN_MOTION": 14.50613846, "ECCENTRICITY": 0.00835385, "INCLINATION": 74.0252, "RA_OF_ASC_NODE": 64.6779, "ARG_OF_PERICENTER": 193.3998, "MEAN_ANOMALY": 235.9956, "EPHEMERIS_TYPE": 0, "CLASSIFICATION_TYPE": "U", "NORAD_CAT_ID": 35883, "ELEMENT_SET_NO": 999, "REV_AT_EPOCH": 62427, "BSTAR": 0.00024458991, "MEAN_MOTION_DOT": 9.74e-06, "MEAN_MOTION_DDOT": 0}, "tle": {"line1": "1 35883U 93036ATW 25349.58258194  .00000974  00000+0  24459-3 0  9999", "line2": "2 35883  74.0252  64.6779 0083538 193.3998 235.9956 14.50613846624275"}}, "geometry": {"type": "Point", "coordinates": [36.75305265139888, -57.10358101653463]}}, {"type": "Feature", "properties": {"norad_id": 35884, "name": "COSMOS 2251 DEB", "group": "cosmos-2251-debris", "lat": 42.41758134958667, "lon": -15.504191071055503, "alt_km": 776.0431142441712, "timestamp": "2025-12-16T10:53:45.867922+00:00", "meta": {"OBJECT_NAME": "COSMOS 2251 DEB", "OBJECT_ID": "1993-036ATX", "EPOCH": "2025-12-09T17:00:47.209536", "MEAN_MOTION": 14.25629404, "ECCENTRICITY": 0.01087033, "INCLINATION": 73.9912, "RA_OF_ASC_NODE": 341.4952, "ARG_OF_PERICENTER": 129.2859, "MEAN_ANOMALY": 231.7992, "EPHEMERIS_TYPE": 0, "CLASSIFICATION_TYPE": "U", "NORAD_CAT_ID": 35884, "ELEMENT_SET_NO": 999, "REV_AT_EPOCH": 22314, "BSTAR": 0.001725321, "MEAN_MOTION_DOT": 4.326e-05, "MEAN_MOTION_DDOT": 0}, "tle": {"line1": "1 35884U 93036ATX 25343.70887974  .00004326  00000+0  17253-2 0  9990", "line2": "2 35884  73.9912 341.4952 0108703 129.2859 231.7992 14.25629404223146"}}, "geometry": {"type": "Point", "coordinates": [-15.504191071055503, 42.41758134958667]}}, {"type": "Feature", "properties": {"norad_id": 35885, "name": "COSMOS 2251 DEB", "group": "cosmos-2251-debris", "lat": -5.524732717988608, "lon": -73.63020507190902, "alt_km": 753.7169786545646, "timestamp": "2025-12-16T10:53:45.867932+00:00", "meta": {"OBJECT_NAME": "COSMOS 2251 DEB", "OBJECT_ID": "1993-036ATY", "EPOCH": "2025-12-15T04:51:32.201856", "MEAN_MOTION": 14.37525016, "ECCENTRICITY": 0.00233799, "INCLINATION": 74.0284, "RA_OF_ASC_NODE": 290.2606, "ARG_OF_PERICENTER": 10.1801, "MEAN_ANOMALY": 349.9821, "EPHEMERIS_TYPE": 0, "CLASSIFICATION_TYPE": "U", "NORAD_CAT_ID": 35885, "ELEMENT_SET_NO": 999, "REV_AT_EPOCH": 65051, "BSTAR": 0.00032687852, "MEAN_MOTION_DOT": 9.56e-06, "MEAN_MOTION_DDOT": 0}, "tle": {"line1": "1 35885U 93036ATY 25349.20245604  .00000956  00000+0  32688-3 0  9995", "line2": "2 35885  74.0284 290.2606 0023379  10.1801 349.9821 14.37525016650513"}}, "geometry": {"type": "Point", "coordinates": [-73.63020507190902, -5.524732717988608]}}]}